format  = 'OEF1.1'       ! file format
rectype = 'ML'           ! record type (1L/ML)
refsys  = ECLM J2000     ! default reference system
END_OF_HEADER
1979XB
! Equinoctial elements: a, e*sin(LP), e*cos(LP), tan(i/2)*sin(LN), tan(i/2)*cos(LN), mean long.
 EQU   2.37356876642097E+00   0.234760152853930  -0.688955769040464    0.222317365908382    0.018995741900287  90.8803798787396
 MJD     56000.000000000 TDT
 MAG  18.510  0.150
! RMS    2.07181E-01   4.54448E-03   5.06361E-02   1.58371E-02   9.87316E-03   4.84833E+02
! EIG   2.59277E-09   3.01375E-08   1.63017E-07   3.24431E-06   4.35467E-05   8.46464E+00
! WEA   0.02448   0.00054  -0.00598   0.00187  -0.00117  -0.99968
 COV   4.292396050560036E-02  9.415008110516210E-04 -1.049084490327091E-02
 COV   3.281142439572014E-03 -2.045531480691490E-03 -1.004481731930136E+02
 COV   2.065232261262323E-05 -2.301069697791850E-04  7.196894176155040E-05
 COV  -4.486700419801766E-05 -2.203245984806346E+00  2.564019009624416E-03
 COV  -8.019288094966377E-04  4.999388051708048E-04  2.455006920880627E+01
 COV   2.508132225110436E-04 -1.563620879091539E-04 -7.678340008190419E+00
 COV   9.747933325461961E-05  4.786834626099749E+00  2.350630132884497E+05
 NOR   9.262720971996536E+17  4.279284538444730E+16  1.463893701469207E+16
 NOR   1.715406616093496E+16 -1.172741788170091E+16  3.954900728669846E+14
 NOR   2.295888609597805E+15  1.944651946725266E+14  7.645228161459698E+14
 NOR  -4.183192918277414E+14  1.832113036041152E+13  9.594277418420742E+14
 NOR   3.135968546281626E+14 -3.731725323979257E+14  6.175038411948797E+12
 NOR   3.212255046229677E+14 -2.342310990731766E+14  7.320028345361506E+12
 NOR   2.352854379772074E+14 -4.988801570209232E+12  1.688700802021861E+11
